start=new Date('2022-08-30T00:00:00.000Z').valueOf();
sats=[{"PERIOD":"95.437","COUNTRY_CODE":"US","TIME_SYSTEM":"UTC","CLASSIFICATION_TYPE":"U","APOAPSIS":"541.239","RA_OF_ASC_NODE":"150.1469","LAUNCH_DATE":"2022-05-13","EPOCH":"2022-08-29T22:00:00.999936","MEAN_MOTION_DDOT":"0.0000000000000","OBJECT_TYPE":"PAYLOAD","NORAD_CAT_ID":"52553","SEMIMAJOR_AXIS":"6917.861","PERIAPSIS":"538.213","REV_AT_EPOCH":"130","BSTAR":"-0.00161120000000","MEAN_MOTION_DOT":"-0.00025844","OBJECT_ID":"2022-051W","ECCENTRICITY":"0.00021870","GP_ID":"211289523","TLE_LINE2":"2 52553  53.2179 150.1469 0002187  57.4573  53.0782 15.08846330  1301","MEAN_ANOMALY":"53.0782","ARG_OF_PERICENTER":"57.4573","OBJECT_NAME":"STARLINK-3858","RCS_SIZE":"LARGE","INCLINATION":"53.2179","FILE":"3551093","SITE":"AFWTR","TLE_LINE1":"1 52553U 22051W   22241.91667824 -.00025844  00000-0 -16112-2 0  9992","DECAY_DATE":null,"MEAN_MOTION":"15.08846330","CENTER_NAME":"EARTH","EPHEMERIS_TYPE":"0","ELEMENT_SET_NO":"999","REF_FRAME":"TEME","MEAN_ELEMENT_THEORY":"SGP4"},{"FILE":"3551093","INCLINATION":"53.2172","REF_FRAME":"TEME","MEAN_ELEMENT_THEORY":"SGP4","ELEMENT_SET_NO":"999","EPHEMERIS_TYPE":"0","CENTER_NAME":"EARTH","MEAN_MOTION":"15.08835082","DECAY_DATE":null,"TLE_LINE1":"1 52554U 22051X   22241.91667824 -.00024059  00000-0 -14987-2 0  9998","SITE":"AFWTR","TLE_LINE2":"2 52554  53.2172 155.1697 0002397  60.1469 202.8593 15.08835082  1307","GP_ID":"211289652","ECCENTRICITY":"0.00023970","RCS_SIZE":"LARGE","OBJECT_NAME":"STARLINK-3770","MEAN_ANOMALY":"202.8593","ARG_OF_PERICENTER":"60.1469","OBJECT_TYPE":"PAYLOAD","NORAD_CAT_ID":"52554","MEAN_MOTION_DDOT":"0.0000000000000","LAUNCH_DATE":"2022-05-13","RA_OF_ASC_NODE":"155.1697","EPOCH":"2022-08-29T22:00:00.999936","OBJECT_ID":"2022-051X","MEAN_MOTION_DOT":"-0.00024059","BSTAR":"-0.00149870000000","REV_AT_EPOCH":"130","PERIAPSIS":"538.102","SEMIMAJOR_AXIS":"6917.895","TIME_SYSTEM":"UTC","COUNTRY_CODE":"US","PERIOD":"95.438","APOAPSIS":"541.419","CLASSIFICATION_TYPE":"U"},{"TLE_LINE2":"2 52555  53.2173 150.1447 0001528  68.2195  82.3034 15.08835396  1306","ECCENTRICITY":"0.00015280","GP_ID":"211289380","RCS_SIZE":"LARGE","OBJECT_NAME":"STARLINK-3949","ARG_OF_PERICENTER":"68.2195","MEAN_ANOMALY":"82.3034","FILE":"3551093","INCLINATION":"53.2173","REF_FRAME":"TEME","MEAN_ELEMENT_THEORY":"SGP4","ELEMENT_SET_NO":"999","EPHEMERIS_TYPE":"0","CENTER_NAME":"EARTH","DECAY_DATE":null,"MEAN_MOTION":"15.08835396","TLE_LINE1":"1 52555U 22051Y   22241.91667824 -.00022489  00000-0 -13995-2 0  9992","SITE":"AFWTR","TIME_SYSTEM":"UTC","COUNTRY_CODE":"US","PERIOD":"95.438","APOAPSIS":"540.817","CLASSIFICATION_TYPE":"U","OBJECT_TYPE":"PAYLOAD","NORAD_CAT_ID":"52555","MEAN_MOTION_DDOT":"0.0000000000000","EPOCH":"2022-08-29T22:00:00.999936","LAUNCH_DATE":"2022-05-13","RA_OF_ASC_NODE":"150.1447","OBJECT_ID":"2022-051Y","MEAN_MOTION_DOT":"-0.00022489","REV_AT_EPOCH":"130","BSTAR":"-0.00139950000000","PERIAPSIS":"538.702","SEMIMAJOR_AXIS":"6917.894"},{"EPHEMERIS_TYPE":"0","CENTER_NAME":"EARTH","ELEMENT_SET_NO":"999","REF_FRAME":"TEME","MEAN_ELEMENT_THEORY":"SGP4","SITE":"AFWTR","TLE_LINE1":"1 52556U 22051Z   22241.91667824 -.00022853  00000-0 -14216-2 0  9995","DECAY_DATE":null,"MEAN_MOTION":"15.08855802","INCLINATION":"53.2172","FILE":"3551093","RCS_SIZE":"LARGE","ARG_OF_PERICENTER":"61.9892","MEAN_ANOMALY":"221.0478","OBJECT_NAME":"STARLINK-3763","ECCENTRICITY":"0.00026390","GP_ID":"211290242","TLE_LINE2":"2 52556  53.2172 155.1697 0002639  61.9892 221.0478 15.08855802  1304","OBJECT_ID":"2022-051Z","SEMIMAJOR_AXIS":"6917.832","PERIAPSIS":"537.871","REV_AT_EPOCH":"130","BSTAR":"-0.00142160000000","MEAN_MOTION_DOT":"-0.00022853","OBJECT_TYPE":"PAYLOAD","NORAD_CAT_ID":"52556","LAUNCH_DATE":"2022-05-13","RA_OF_ASC_NODE":"155.1697","EPOCH":"2022-08-29T22:00:00.999936","MEAN_MOTION_DDOT":"0.0000000000000","APOAPSIS":"541.523","CLASSIFICATION_TYPE":"U","TIME_SYSTEM":"UTC","PERIOD":"95.437","COUNTRY_CODE":"US"},{"APOAPSIS":"540.824","CLASSIFICATION_TYPE":"U","TIME_SYSTEM":"UTC","PERIOD":"95.438","COUNTRY_CODE":"US","OBJECT_ID":"2022-051AA","SEMIMAJOR_AXIS":"6917.890","PERIAPSIS":"538.685","BSTAR":"-0.00135880000000","REV_AT_EPOCH":"130","MEAN_MOTION_DOT":"-0.00021846","OBJECT_TYPE":"PAYLOAD","NORAD_CAT_ID":"52557","RA_OF_ASC_NODE":"150.1471","LAUNCH_DATE":"2022-05-13","EPOCH":"2022-08-29T22:00:00.999936","MEAN_MOTION_DDOT":"0.0000000000000","RCS_SIZE":"LARGE","MEAN_ANOMALY":"147.0127","ARG_OF_PERICENTER":"63.5037","OBJECT_NAME":"STARLINK-3943","ECCENTRICITY":"0.00015460","GP_ID":"211289940","TLE_LINE2":"2 52557  53.2179 150.1471 0001546  63.5037 147.0127 15.08836962  1306","EPHEMERIS_TYPE":"0","CENTER_NAME":"EARTH","ELEMENT_SET_NO":"999","MEAN_ELEMENT_THEORY":"SGP4","REF_FRAME":"TEME","SITE":"AFWTR","TLE_LINE1":"1 52557U 22051AA  22241.91667824 -.00021846  00000-0 -13588-2 0  9998","MEAN_MOTION":"15.08836962","DECAY_DATE":null,"INCLINATION":"53.2179","FILE":"3551093"},{"PERIAPSIS":"538.214","SEMIMAJOR_AXIS":"6917.891","MEAN_MOTION_DOT":"-0.00019295","BSTAR":"-0.00119750000000","REV_AT_EPOCH":"130","OBJECT_ID":"2022-051AB","LAUNCH_DATE":"2022-05-13","RA_OF_ASC_NODE":"140.1886","EPOCH":"2022-08-29T22:00:00.999936","MEAN_MOTION_DDOT":"0.0000000000000","NORAD_CAT_ID":"52558","OBJECT_TYPE":"PAYLOAD","CLASSIFICATION_TYPE":"U","APOAPSIS":"541.298","PERIOD":"95.438","COUNTRY_CODE":"US","TIME_SYSTEM":"UTC","SITE":"AFWTR","MEAN_MOTION":"15.08836594","DECAY_DATE":null,"TLE_LINE1":"1 52558U 22051AB  22241.91667824 -.00019295  00000-0 -11975-2 0  9992","EPHEMERIS_TYPE":"0","CENTER_NAME":"EARTH","REF_FRAME":"TEME","MEAN_ELEMENT_THEORY":"SGP4","ELEMENT_SET_NO":"999","INCLINATION":"53.2093","FILE":"3551093","OBJECT_NAME":"STARLINK-3954","MEAN_ANOMALY":"145.3529","ARG_OF_PERICENTER":"60.1954","RCS_SIZE":"LARGE","GP_ID":"211289236","ECCENTRICITY":"0.00022290","TLE_LINE2":"2 52558  53.2093 140.1886 0002229  60.1954 145.3529 15.08836594  1309"},{"GP_ID":"211289796","ECCENTRICITY":"0.00024330","TLE_LINE2":"2 52559  53.2161 140.1564 0002433  64.6995 175.6617 15.08851354  1305","RCS_SIZE":"LARGE","MEAN_ANOMALY":"175.6617","ARG_OF_PERICENTER":"64.6995","OBJECT_NAME":"STARLINK-3953","INCLINATION":"53.2161","FILE":"3551093","CENTER_NAME":"EARTH","EPHEMERIS_TYPE":"0","ELEMENT_SET_NO":"999","MEAN_ELEMENT_THEORY":"SGP4","REF_FRAME":"TEME","SITE":"AFWTR","TLE_LINE1":"1 52559U 22051AC  22241.91667824 -.00017578  00000-0 -10886-2 0  9995","DECAY_DATE":null,"MEAN_MOTION":"15.08851354","TIME_SYSTEM":"UTC","PERIOD":"95.437","COUNTRY_CODE":"US","APOAPSIS":"541.394","CLASSIFICATION_TYPE":"U","NORAD_CAT_ID":"52559","OBJECT_TYPE":"PAYLOAD","LAUNCH_DATE":"2022-05-13","RA_OF_ASC_NODE":"140.1564","EPOCH":"2022-08-29T22:00:00.999936","MEAN_MOTION_DDOT":"0.0000000000000","OBJECT_ID":"2022-051AC","SEMIMAJOR_AXIS":"6917.846","PERIAPSIS":"538.028","BSTAR":"-0.00108860000000","REV_AT_EPOCH":"130","MEAN_MOTION_DOT":"-0.00017578"},{"GP_ID":"211290085","ECCENTRICITY":"0.00023790","TLE_LINE2":"2 52560  53.2163 140.1580 0002379  61.6392 163.8813 15.08838560  1305","RCS_SIZE":"LARGE","ARG_OF_PERICENTER":"61.6392","MEAN_ANOMALY":"163.8813","OBJECT_NAME":"STARLINK-3956","INCLINATION":"53.2163","FILE":"3551093","EPHEMERIS_TYPE":"0","CENTER_NAME":"EARTH","ELEMENT_SET_NO":"999","MEAN_ELEMENT_THEORY":"SGP4","REF_FRAME":"TEME","SITE":"AFWTR","TLE_LINE1":"1 52560U 22051AD  22241.91667824 -.00020219  00000-0 -12558-2 0  9991","MEAN_MOTION":"15.08838560","DECAY_DATE":null,"TIME_SYSTEM":"UTC","PERIOD":"95.438","COUNTRY_CODE":"US","APOAPSIS":"541.396","CLASSIFICATION_TYPE":"U","NORAD_CAT_ID":"52560","OBJECT_TYPE":"PAYLOAD","EPOCH":"2022-08-29T22:00:00.999936","LAUNCH_DATE":"2022-05-13","RA_OF_ASC_NODE":"140.1580","MEAN_MOTION_DDOT":"0.0000000000000","OBJECT_ID":"2022-051AD","SEMIMAJOR_AXIS":"6917.885","PERIAPSIS":"538.104","BSTAR":"-0.00125580000000","REV_AT_EPOCH":"130","MEAN_MOTION_DOT":"-0.00020219"},{"SITE":"AFWTR","MEAN_MOTION":"15.08854020","DECAY_DATE":null,"TLE_LINE1":"1 52561U 22051AE  22241.91667824 -.00023034  00000-0 -14331-2 0  9991","CENTER_NAME":"EARTH","EPHEMERIS_TYPE":"0","MEAN_ELEMENT_THEORY":"SGP4","REF_FRAME":"TEME","ELEMENT_SET_NO":"999","INCLINATION":"53.2168","FILE":"3551093","OBJECT_NAME":"STARLINK-3955","ARG_OF_PERICENTER":"60.4282","MEAN_ANOMALY":"262.6246","RCS_SIZE":"LARGE","ECCENTRICITY":"0.00026560","GP_ID":"211289524","TLE_LINE2":"2 52561  53.2168 155.1741 0002656  60.4282 262.6246 15.08854020  1306","PERIAPSIS":"537.865","SEMIMAJOR_AXIS":"6917.838","MEAN_MOTION_DOT":"-0.00023034","REV_AT_EPOCH":"130","BSTAR":"-0.00143310000000","OBJECT_ID":"2022-051AE","EPOCH":"2022-08-29T22:00:00.999936","LAUNCH_DATE":"2022-05-13","RA_OF_ASC_NODE":"155.1741","MEAN_MOTION_DDOT":"0.0000000000000","OBJECT_TYPE":"PAYLOAD","NORAD_CAT_ID":"52561","CLASSIFICATION_TYPE":"U","APOAPSIS":"541.540","PERIOD":"95.437","COUNTRY_CODE":"US","TIME_SYSTEM":"UTC"},{"CLASSIFICATION_TYPE":"U","APOAPSIS":"541.194","COUNTRY_CODE":"US","PERIOD":"95.438","TIME_SYSTEM":"UTC","REV_AT_EPOCH":"130","BSTAR":"-0.00116610000000","MEAN_MOTION_DOT":"-0.00018796","SEMIMAJOR_AXIS":"6917.898","PERIAPSIS":"538.333","OBJECT_ID":"2022-051AF","MEAN_MOTION_DDOT":"0.0000000000000","EPOCH":"2022-08-29T22:00:00.999936","LAUNCH_DATE":"2022-05-13","RA_OF_ASC_NODE":"140.1543","OBJECT_TYPE":"PAYLOAD","NORAD_CAT_ID":"52562","MEAN_ANOMALY":"207.5087","ARG_OF_PERICENTER":"58.0235","OBJECT_NAME":"STARLINK-3957","RCS_SIZE":"LARGE","TLE_LINE2":"2 52562  53.2151 140.1543 0002068  58.0235 207.5087 15.08834134  1306","ECCENTRICITY":"0.00020680","GP_ID":"211289653","TLE_LINE1":"1 52562U 22051AF  22241.91667824 -.00018796  00000-0 -11661-2 0  9994","DECAY_DATE":null,"MEAN_MOTION":"15.08834134","SITE":"AFWTR","ELEMENT_SET_NO":"999","MEAN_ELEMENT_THEORY":"SGP4","REF_FRAME":"TEME","EPHEMERIS_TYPE":"0","CENTER_NAME":"EARTH","FILE":"3551093","INCLINATION":"53.2151"}];
